     3.04           N: GNSS NAV DATA    G: GPS              RINEX VERSION / TYPE
TPP 5.1.1                               20240330 235934 UTC PGM / RUN BY / DATE 
                                                            COMMENT             
                                                            COMMENT             
                                                            COMMENT             
GPSA    .3353E-07   .7451E-08  -.1788E-06   .0000E+00       IONOSPHERIC CORR    
GPSB    .1372E+06   .0000E+00  -.3277E+06   .2621E+06       IONOSPHERIC CORR    
GPUT   .9313225746E-09  .888178420E-15 233472 2308          TIME SYSTEM CORR    
    18  2307     7                                          LEAP SECONDS        
                                                            END OF HEADER       
G14 2024 03 31 22 00 00  .364812556654E-03  .966338120634E-11  .000000000000E+00
      .116000000000E+03  .586250000000E+02  .478662795370E-08  .106141492543E+01
      .304728746414E-05  .419736385811E-02  .869296491146E-05  .515369683838E+04
      .792000000000E+05 -.558793544769E-07  .955538292154E+00  .106170773506E-06
      .946205824242E+00  .204031250000E+03 -.294608938452E+01 -.806819321549E-08
     -.213223167315E-09  .000000000000E+00  .230800000000E+04  .000000000000E+00
      .200000000000E+01  .000000000000E+00 -.791624188423E-08  .628000000000E+03
      .720180000000E+05  .000000000000E+00  .000000000000E+00  .000000000000E+00
G15 2024 03 31 22 00 00  .143575947732E-03  .397903932026E-11  .000000000000E+00
      .870000000000E+02 -.307187500000E+02  .495877798158E-08 -.262297633022E+01
     -.161863863468E-05  .154717088444E-01  .775046646595E-05  .515362728691E+04
      .792000000000E+05  .117346644402E-06 -.131484529585E+01 -.540167093277E-07
      .934574800426E+00  .213250000000E+03  .129914607826E+01 -.789140013706E-08
      .353228999120E-09  .000000000000E+00  .230800000000E+04  .000000000000E+00
      .200000000000E+01  .000000000000E+00 -.107102096081E-07  .870000000000E+02
      .720180000000E+05  .000000000000E+00  .000000000000E+00  .000000000000E+00
G16 2024 03 31 21 59 44 -.327861402184E-03  .920863385545E-11  .000000000000E+00
      .370000000000E+02  .740937500000E+02  .439911181209E-08 -.719522688722E+00
      .413507223129E-05  .139819069300E-01  .870414078236E-05  .515375758934E+04
      .791840000000E+05  .689178705215E-07  .101703872306E+01  .201165676117E-06
      .962344517055E+00  .212343750000E+03  .834089378691E+00 -.802747723379E-08
     -.166435504135E-09  .000000000000E+00  .230800000000E+04  .000000000000E+00
      .200000000000E+01  .000000000000E+00 -.102445483208E-07  .370000000000E+02
      .720180000000E+05  .000000000000E+00  .000000000000E+00  .000000000000E+00
G18 2024 03 31 22 00 00 -.586233101785E-03 -.704858393874E-11  .000000000000E+00
      .171000000000E+03 -.390312500000E+02  .432303721471E-08  .261925282628E+01
     -.195577740669E-05  .392175477464E-02  .342354178429E-05  .515361936379E+04
      .792000000000E+05 -.145286321640E-06  .304317736188E+01 -.931322574616E-08
      .974804716986E+00  .323343750000E+03 -.304103554741E+01 -.810890919719E-08
     -.692886004340E-10  .000000000000E+00  .230800000000E+04  .000000000000E+00
      .200000000000E+01  .000000000000E+00 -.838190317154E-08  .939000000000E+03
      .720180000000E+05  .000000000000E+00  .000000000000E+00  .000000000000E+00
G20 2024 03 31 22 00 00  .381863210350E-03 -.136424205266E-11  .000000000000E+00
      .970000000000E+02 -.729687500000E+02  .452768859640E-08  .310949222253E+01
     -.387430191040E-05  .371764390729E-02  .642240047455E-05  .515375912857E+04
      .792000000000E+05 -.707805156708E-07 -.238709533866E+01 -.577419996262E-07
      .953028460158E+00  .247312500000E+03 -.260133666752E+01 -.804854954011E-08
     -.228580949885E-10  .000000000000E+00  .230800000000E+04  .000000000000E+00
      .200000000000E+01  .000000000000E+00 -.838190317154E-08  .970000000000E+02
      .720180000000E+05  .000000000000E+00  .000000000000E+00  .000000000000E+00
G22 2024 03 31 22 00 00  .736955553293E-05 -.579802872380E-11  .000000000000E+00
      .610000000000E+02  .625625000000E+02  .449768734673E-08 -.112740204708E+01
      .328943133354E-05  .144030340016E-01  .911392271519E-05  .515371284676E+04
      .792000000000E+05 -.271946191788E-06  .102033798369E+01  .260770320892E-07
      .961648236806E+00  .210281250000E+03 -.113774248311E+01 -.810748056625E-08
     -.339299847486E-10  .000000000000E+00  .230800000000E+04  .000000000000E+00
      .200000000000E+01  .000000000000E+00 -.111758708954E-07  .610000000000E+02
      .720180000000E+05  .000000000000E+00  .000000000000E+00  .000000000000E+00
G23 2024 03 31 22 00 00  .190088059753E-03  .898126018001E-11  .000000000000E+00
      .202000000000E+03 -.855625000000E+02  .399016620644E-08  .146224936186E+01
     -.431947410107E-05  .404053530656E-02  .800378620625E-05  .515371567154E+04
      .792000000000E+05  .167638063431E-07 -.223994203730E+01  .633299350739E-07
      .978309998904E+00  .234593750000E+03 -.295612875785E+01 -.782996900678E-08
     -.214294640518E-11  .000000000000E+00  .230800000000E+04  .000000000000E+00
      .200000000000E+01  .000000000000E+00 -.838190317154E-08  .202000000000E+03
      .720180000000E+05  .000000000000E+00  .000000000000E+00  .000000000000E+00
G24 2024 03 31 22 00 00 -.453779939562E-03 -.488853402203E-11  .000000000000E+00
      .250000000000E+02 -.102812500000E+02  .509378360510E-08  .280098691143E+01
     -.603497028351E-06  .151738076238E-01  .722147524357E-05  .515371726227E+04
      .792000000000E+05  .577419996262E-07 -.212146127343E+00 -.163912773132E-06
      .934309555823E+00  .224093750000E+03  .972569160186E+00 -.796711757671E-08
     -.707172313708E-10  .000000000000E+00  .230800000000E+04  .000000000000E+00
      .200000000000E+01  .000000000000E+00  .232830643654E-08  .250000000000E+02
      .720180000000E+05  .000000000000E+00  .000000000000E+00  .000000000000E+00
G26 2024 03 31 22 00 00  .172612257302E-03 -.477484718431E-11  .000000000000E+00
      .610000000000E+02  .591875000000E+02  .510985570314E-08  .173927386671E+00
      .315532088280E-05  .884445814881E-02  .868178904057E-05  .515361427117E+04
      .792000000000E+05  .745058059692E-07  .851727034421E+00  .894069671631E-07
      .931617254055E+00  .197000000000E+03  .539190106884E+00 -.830498879326E-08
     -.230009580822E-09  .000000000000E+00  .230800000000E+04  .000000000000E+00
      .200000000000E+01  .000000000000E+00  .698491930962E-08  .610000000000E+02
      .720180000000E+05  .000000000000E+00  .000000000000E+00  .000000000000E+00
G27 2024 03 31 22 00 00 -.157188624144E-04 -.250111042988E-11  .000000000000E+00
      .450000000000E+02  .959062500000E+02  .452340270359E-08 -.158306668092E+01
      .490620732307E-05  .125510337530E-01  .448152422905E-05  .515368005562E+04
      .792000000000E+05  .229105353355E-06  .197079081418E+01 -.102445483208E-06
      .962779714702E+00  .290937500000E+03  .777679670097E+00 -.806355016494E-08
      .136434254463E-09  .000000000000E+00  .230800000000E+04  .000000000000E+00
      .200000000000E+01  .000000000000E+00  .186264514923E-08  .450000000000E+02
      .720180000000E+05  .000000000000E+00  .000000000000E+00  .000000000000E+00
G29 2024 03 31 22 00 00 -.603264663368E-03  .113686837722E-11  .000000000000E+00
      .600000000000E+01  .735625000000E+02  .440982654412E-08 -.162831062924E+01
      .379048287869E-05  .274921138771E-02  .464543700218E-05  .515361925507E+04
      .792000000000E+05 -.111758708954E-07  .205354213878E+01 -.372529029846E-08
      .971960396086E+00  .301437500000E+03  .249408880748E+01 -.807247910830E-08
      .578595529398E-10  .000000000000E+00  .230800000000E+04  .000000000000E+00
      .200000000000E+01  .000000000000E+00 -.977888703346E-08  .600000000000E+01
      .720180000000E+05  .000000000000E+00  .000000000000E+00  .000000000000E+00
G30 2024 03 31 22 00 00 -.411838758737E-03  .545696821064E-11  .000000000000E+00
      .164000000000E+03 -.359375000000E+01  .523593238331E-08  .163439918018E+01
     -.160187482834E-06  .697958038654E-02  .775791704655E-05  .515366293526E+04
      .792000000000E+05 -.115483999252E-06 -.114670843884E+00  .763684511185E-07
      .935810831614E+00  .219375000000E+03 -.250144791448E+01 -.830820321287E-08
     -.156077929844E-09  .000000000000E+00  .230800000000E+04  .000000000000E+00
      .200000000000E+01  .000000000000E+00  .372529029846E-08  .164000000000E+03
      .720180000000E+05  .000000000000E+00  .000000000000E+00  .000000000000E+00
G06 2024 03 31 21 59 44  .343031249940E-03 -.172803993337E-10  .000000000000E+00
      .530000000000E+02 -.286562500000E+02  .396945105786E-08  .263446549634E+01
     -.127218663692E-05  .309561600443E-02  .409036874771E-05  .515359403419E+04
      .791840000000E+05  .800937414169E-07  .303830450172E+01  .104308128357E-06
      .990003522969E+00  .316500000000E+03 -.713986632203E+00 -.790461497323E-08
     -.932181686252E-10  .100000000000E+01  .230800000000E+04  .000000000000E+00
      .200000000000E+01  .000000000000E+00  .419095158577E-08  .530000000000E+02
      .720780000000E+05  .000000000000E+00  .000000000000E+00  .000000000000E+00
G06 2024 03 31 21 59 44  .343031249940E-03 -.172803993337E-10  .000000000000E+00
      .530000000000E+02 -.286562500000E+02  .396945105786E-08  .263446549634E+01
     -.127218663692E-05  .309561600443E-02  .409036874771E-05  .515359403419E+04
      .791840000000E+05  .800937414169E-07  .303830450172E+01  .104308128357E-06
      .990003522969E+00  .316500000000E+03 -.713986632203E+00 -.790461497323E-08
     -.932181686252E-10  .100000000000E+01  .230800000000E+04  .000000000000E+00
      .200000000000E+01  .000000000000E+00  .419095158577E-08  .530000000000E+02
      .720180000000E+05  .000000000000E+00  .000000000000E+00  .000000000000E+00
